NORAD_CAT_ID,OBJECT_NAME,OBJECT_TYPE,EPOCH,MEAN_MOTION,ECCENTRICITY,INCLINATION,RA_OF_ASC_NODE,ARG_OF_PERICENTER,MEAN_ANOMALY,BSTAR,MEAN_MOTION_DOT,MEAN_MOTION_DDOT,TLE_LINE0,TLE_LINE1,TLE_LINE2,SEMIMAJOR_AXIS,PERIOD,APOGEE,PERIGEE,DECAYED
49434.0,STARLINK-3134,PAYLOAD,2023-01-26 03:06:49,15.08845879,0.0001079,53.2139,300.3236,72.2269,287.8841,0.0009013999999999,0.00014089,0.0,0 STARLINK-3134,1 49434U 21104AC  23026.12973808  .00014089  00000-0  90140-3 0  9992,2 49434  53.2139 300.3236 0001079  72.2269 287.8841 15.08845879 67838,6917.861999999999,95.437,540.474,538.981,0.0
49434.0,STARLINK-3134,PAYLOAD,2023-01-26 23:46:50,15.08843978,0.0001174,53.2135,296.4554,70.4721,289.6398,0.00044246,6.762e-05,0.0,0 STARLINK-3134,1 49434U 21104AC  23026.99085783  .00006762  00000-0  44246-3 0  9998,2 49434  53.2135 296.4554 0001174  70.4721 289.6398 15.08843978 67960,6917.868,95.437,540.545,538.9209999999999,0.0
49434.0,STARLINK-3134,PAYLOAD,2023-01-27 01:22:13,15.0885074,0.0001188,53.2141,296.1584,67.3675,292.7443,0.00067325,0.00010446,0.0,0 STARLINK-3134,1 49434U 21104AC  23027.05709688  .00010446  00000-0  67325-3 0  9990,2 49434  53.2141 296.1584 0001188  67.3675 292.7443 15.08850740 67977,6917.848000000001,95.437,540.534,538.891,0.0
49434.0,STARLINK-3134,PAYLOAD,2023-01-28 02:48:23,15.08841058,0.000126,53.2135,291.4023,75.7855,284.3277,0.00021753,3.176e-05,0.0,0 STARLINK-3134,1 49434U 21104AC  23028.11694243  .00003176  00000-0  21753-3 0  9995,2 49434  53.2135 291.4023 0001260  75.7855 284.3277 15.08841058 68133,6917.877,95.437,540.614,538.871,0.0
49434.0,STARLINK-3134,PAYLOAD,2023-01-28 21:53:01,15.08840917,0.0001353,53.2135,287.8321,83.3196,276.795,0.00019121,2.757e-05,0.0,0 STARLINK-3134,1 49434U 21104AC  23028.91182465  .00002757  00000-0  19121-3 0  9991,2 49434  53.2135 287.8321 0001353  83.3196 276.7950 15.08840917 68258,6917.878,95.437,540.679,538.807,0.0
49434.0,STARLINK-3134,PAYLOAD,2023-01-29 16:57:38,15.08852865,0.0001471,53.213,284.2641,83.5116,276.6044,0.00032661,4.916e-05,0.0,0 STARLINK-3134,1 49434U 21104AC  23029.70669886  .00004916  00000-0  32661-3 0  9999,2 49434  53.2130 284.2641 0001471  83.5116 276.6044 15.08852865 68375,6917.841,95.437,540.724,538.688,0.0
49434.0,STARLINK-3134,PAYLOAD,2023-01-29 20:08:24,15.08854364,0.0001403,53.213,283.6693,87.3351,272.7801,0.00032663,4.916e-05,0.0,0 STARLINK-3134,1 49434U 21104AC  23029.83917620  .00004916  00000-0  32663-3 0  9997,2 49434  53.2130 283.6693 0001403  87.3351 272.7801 15.08854364 68399,6917.836,95.437,540.672,538.731,0.0
49434.0,STARLINK-3134,PAYLOAD,2023-01-30 02:29:56,15.08859771,0.0001377,53.2128,282.4797,85.0823,275.0326,0.0003497,5.285e-05,0.0,0 STARLINK-3134,1 49434U 21104AC  23030.10413150  .00005285  00000-0  34970-3 0  9991,2 49434  53.2128 282.4797 0001377  85.0823 275.0326 15.08859771 68437,6917.82,95.436,540.638,538.732,0.0
49434.0,STARLINK-3134,PAYLOAD,2023-01-30 21:34:35,15.0883628,0.0001089,53.2126,278.9119,102.4389,257.6725,-0.00021092,-3.643e-05,0.0,0 STARLINK-3134,1 49434U 21104AC  23030.89901736 -.00003643  00000-0 -21092-3 0  9998,2 49434  53.2126 278.9119 0001089 102.4389 257.6725 15.08836280 68556,6917.892,95.438,540.51,539.003,0.0
49434.0,STARLINK-3134,PAYLOAD,2023-01-30 23:09:58,15.08837687,0.0001205,53.2125,278.6153,84.8165,275.2965,-0.00013674,-2.463e-05,0.0,0 STARLINK-3134,1 49434U 21104AC  23030.96526001 -.00002463  00000-0 -13674-3 0  9990,2 49434  53.2125 278.6153 0001205  84.8165 275.2965 15.08837687 68560,6917.887,95.438,540.586,538.919,0.0
49434.0,STARLINK-3134,PAYLOAD,2023-01-31 02:20:44,15.08840657,0.0001193,53.2126,278.0203,85.5244,274.5884,-8.3566e-05,-1.618e-05,0.0,0 STARLINK-3134,1 49434U 21104AC  23031.09773843 -.00001618  00000-0 -83566-4 0  9992,2 49434  53.2126 278.0203 0001193  85.5244 274.5884 15.08840657 68588,6917.878,95.438,540.569,538.918,0.0
49434.0,STARLINK-3134,PAYLOAD,2023-01-31 16:39:12,15.08840982,0.0001123,53.213,275.3435,85.8083,274.3038,-3.255e-05,-8.06e-06,0.0,0 STARLINK-3134,1 49434U 21104AC  23031.69389858 -.00000806  00000-0 -32550-4 0  9992,2 49434  53.2130 275.3435 0001123  85.8083 274.3038 15.08840982 68677,6917.877,95.437,540.519,538.966,0.0
49434.0,STARLINK-3134,PAYLOAD,2023-02-01 02:11:31,15.08848978,0.0001116,53.2131,273.5589,87.8503,272.2617,0.00025526,3.778e-05,0.0,0 STARLINK-3134,1 49434U 21104AC  23032.09133537  .00003778  00000-0  25526-3 0  9991,2 49434  53.2131 273.5589 0001116  87.8503 272.2617 15.08848978 68739,6917.853,95.437,540.49,538.946,0.0
49434.0,STARLINK-3134,PAYLOAD,2023-02-02 02:02:19,15.08832636,0.0001084,53.2137,269.0984,79.3663,280.7451,6.9192e-05,8.13e-06,0.0,0 STARLINK-3134,1 49434U 21104AC  23033.08494749  .00000813  00000-0  69192-4 0  9991,2 49434  53.2137 269.0984 0001084  79.3663 280.7451 15.08832636 68881,6917.903,95.438,540.518,539.018,0.0
49434.0,STARLINK-3134,PAYLOAD,2023-02-02 14:45:24,15.08843405,0.0001034,53.2131,266.7196,79.0879,281.0229,0.00024075,3.546e-05,0.0,0 STARLINK-3134,1 49434U 21104AC  23033.61486470  .00003546  00000-0  24075-3 0  9998,2 49434  53.2131 266.7196 0001034  79.0879 281.0229 15.08843405 68967,6917.87,95.437,540.45,539.02,0.0
49434.0,STARLINK-3134,PAYLOAD,2023-02-02 16:20:47,15.08845275,0.0001025,53.2133,266.4223,77.5696,282.541,0.00029229,4.368e-05,0.0,0 STARLINK-3134,1 49434U 21104AC  23033.68110436  .00004368  00000-0  29229-3 0  9990,2 49434  53.2133 266.4223 0001025  77.5696 282.5410 15.08845275 68973,6917.864,95.437,540.438,539.02,0.0
49434.0,STARLINK-3134,PAYLOAD,2023-02-03 06:39:22,15.08665536,8.86e-05,53.2128,263.7447,158.0563,202.0467,-0.0028964,-0.00045871,0.0,0 STARLINK-3134,1 49434U 21104AC  23034.27734665 -.00045871  00000-0 -28964-2 0  9992,2 49434  53.2128 263.7447 0000886 158.0563 202.0467 15.08665536 69067,6918.414,95.449,540.892,539.666,0.0
49434.0,STARLINK-3134,PAYLOAD,2023-02-04 04:55:21,15.08241849,0.0001283,53.2106,259.5848,54.78,305.3312,-0.0068407,-0.00105818,0.0,0 STARLINK-3134,1 49434U 21104AC  23035.20511555 -.00105818  00000-0 -68407-2 0  9991,2 49434  53.2106 259.5848 0001283  54.7800 305.3312 15.08241849 69208,6919.709,95.475,542.462,540.687,0.0
49434.0,STARLINK-3134,PAYLOAD,2023-02-04 14:27:57,15.08175408,0.0001239,53.2114,257.7961,93.2056,266.9077,-0.0053795,-0.00083386,0.0,0 STARLINK-3134,1 49434U 21104AC  23035.60274392 -.00083386  00000-0 -53795-2 0  9999,2 49434  53.2114 257.7961 0001239  93.2056 266.9077 15.08175408 69268,6919.913,95.48,542.635,540.92,0.0
49434.0,STARLINK-3134,PAYLOAD,2023-02-04 20:49:37,15.08264935,8.89e-05,53.2122,256.6144,51.4273,308.6799,-0.0017003,-0.00026825,0.0,0 STARLINK-3134,1 49434U 21104AC  23035.86779517 -.00026825  00000-0 -17003-2 0  9993,2 49434  53.2122 256.6144 0000889  51.4273 308.6799 15.08264935 69309,6919.639,95.474,542.119,540.889,0.0
49434.0,STARLINK-3134,PAYLOAD,2023-02-05 03:11:16,15.08333933,9.75e-05,53.2116,255.4196,121.0033,239.1054,0.00094483,0.00014575,0.0,0 STARLINK-3134,1 49434U 21104AC  23036.13283087  .00014575  00000-0  94483-3 0  9991,2 49434  53.2116 255.4196 0000975 121.0033 239.1054 15.08333933 69341,6919.428,95.47,541.967,540.618,0.0
49434.0,STARLINK-3134,PAYLOAD,2023-02-05 14:19:06,15.08501247,0.0002541,53.2134,253.3396,41.4021,318.7163,0.0059151,0.00094236,0.0,0 STARLINK-3134,1 49434U 21104AC  23036.59660706  .00094236  00000-0  59151-2 0  9992,2 49434  53.2134 253.3396 0002541  41.4021 318.7163 15.08501247 69411,6918.916,95.459,542.539,539.023,0.0
49434.0,STARLINK-3134,PAYLOAD,2023-02-05 19:05:17,15.08576164,0.0001428,53.2117,252.4442,81.5339,278.5814,0.007302,0.00117012,0.0,0 STARLINK-3134,1 49434U 21104AC  23036.79534205  .00117012  00000-0  73020-2 0  9997,2 49434  53.2117 252.4442 0001428  81.5339 278.5814 15.08576164 69443,6918.687,95.454,541.54,539.564,0.0
49434.0,STARLINK-3134,PAYLOAD,2023-02-05 20:40:41,15.08586295,8.26e-05,53.2138,252.1484,75.5809,284.5274,0.0071622,0.00114761,0.0,0 STARLINK-3134,1 49434U 21104AC  23036.86158952  .00114761  00000-0  71622-2 0  9990,2 49434  53.2138 252.1484 0000826  75.5809 284.5274 15.08586295 69459,6918.656,95.454,541.092,539.949,0.0
49434.0,STARLINK-3134,PAYLOAD,2023-02-06 01:26:52,15.08630195,8.21e-05,53.2143,251.2568,75.2296,284.8787,0.0067653,0.00108418,0.0,0 STARLINK-3134,1 49434U 21104AC  23037.06033010  .00108418  00000-0  67653-2 0  9991,2 49434  53.2143 251.2568 0000821  75.2296 284.8787 15.08630195 69484,6918.522,95.451,540.955,539.819,0.0
49434.0,STARLINK-3134,PAYLOAD,2023-02-06 20:31:28,15.08846113,0.0001475,53.2142,247.6883,64.1529,295.9615,0.0015151,0.00023911,0.0,0 STARLINK-3134,1 49434U 21104AC  23037.85519220  .00023911  00000-0  15151-2 0  9990,2 49434  53.2142 247.6883 0001475  64.1529 295.9615 15.08846113 69600,6917.862,95.437,540.747,538.706,0.0
49434.0,STARLINK-3134,PAYLOAD,2023-02-07 12:25:19,15.08846433,0.0001163,53.2149,244.7141,96.5869,263.5256,6.1212e-05,6.87e-06,0.0,0 STARLINK-3134,1 49434U 21104AC  23038.51758421  .00000687  00000-0  61212-4 0  9998,2 49434  53.2149 244.7141 0001163  96.5869 263.5256 15.08846433 69700,6917.861,95.437,540.53,538.921,0.0
49434.0,STARLINK-3134,PAYLOAD,2023-02-07 14:00:42,15.08844546,0.0001039,53.2149,244.4167,87.0803,273.0308,4.1694e-05,3.76e-06,0.0,0 STARLINK-3134,1 49434U 21104AC  23038.58382480  .00000376  00000-0  41694-4 0  9990,2 49434  53.2149 244.4167 0001039  87.0803 273.0308 15.08844546 69718,6917.866,95.437,540.45,539.013,0.0
49434.0,STARLINK-3134,PAYLOAD,2023-02-07 20:22:15,15.08845998,0.0001183,53.2143,243.2272,68.654,291.4578,0.00020818,3.027e-05,0.0,0 STARLINK-3134,1 49434U 21104AC  23038.84878588  .00003027  00000-0  20818-3 0  9998,2 49434  53.2143 243.2272 0001183  68.6540 291.4578 15.08845998 69758,6917.862,95.437,540.545,538.909,0.0
49434.0,STARLINK-3134,PAYLOAD,2023-02-08 12:16:06,15.08840118,0.0001213,53.214,240.2531,73.6561,286.4565,2.9802e-05,1.86e-06,0.0,0 STARLINK-3134,1 49434U 21104AC  23039.51118637  .00000186  00000-0  29802-4 0  9991,2 49434  53.2140 240.2531 0001213  73.6561 286.4565 15.08840118 69853,6917.88,95.438,540.584,538.906,0.0
